SIRIUS-1                
1 26390U 00035A   09117.29353790 -.00000026  00000-0  10000-3 0  4701
2 26390  61.5872 255.4541 2661627 269.9635  59.7810  1.00278582 32331
SIRIUS-2                
1 26483U 00051A   09117.95753562  .00000154  00000-0  10000-3 0  1805
2 26483  63.7141 135.4380 2677814 269.6466  60.0070  1.00279537 31679
SIRIUS-3                
1 26626U 00077A   09117.62798177 -.00000139  00000-0  10000-3 0  4118
2 26626  64.0023  15.5782 2662011 270.1366  59.7996  1.00281796 30800
XM-2 (ROCK)             
1 26724U 01012A   09118.46154977 -.00000206  00000-0  10000-3 0  5839
2 26724   0.0183 274.5516 0000277   8.0635  14.8684  1.00270395 29798
XM-1 (ROLL)             
1 26761U 01018A   09116.22553170 -.00000198  00000-0  10000-3 0  3609
2 26761   0.0728 271.8874 0000492 184.0704 114.4115  1.00269759 29240
XM-3 (RHYTHM)           
1 28626U 05008A   09117.39947896 -.00000203  00000-0  10000-3 0  5828
2 28626   0.0073 279.8283 0000153  52.0713 302.3261  1.00270498 15297
XM-4 (BLUES)            
1 29520U 06049A   09118.40533311 -.00000026  00000-0  10000-3 0  3601
2 29520   0.0115  36.0839 0000281 211.9446 359.3891  1.00272001  9240
